[{"OBJECT_ID":"2001-011C","OBJECT_NAME":"ARIANE 5 R/B","NORAD_CAT_ID":"26721","OBJECT_TYPE":"ROCKET BODY","PERIOD":"641.257","INCLINATION":"1.5753","APOGEE":"35633.591","PERIGEE":"875.907","ECCENTRICITY":"0.7055139","MEAN_MOTION":"2.24558687","TLE_LINE1":"1 26721U 01011C   16238.87917516 -.00000260 +00000-0 -13675-2 0  9999","TLE_LINE2":"2 26721 001.5753 096.4020 7055139 220.5920 343.9057 02.24558687126908","LAUNCH_DATE":"2001-03-08","LAUNCH_SITE":"FRENCH GUIANA","OWNER":"FRANCE","ORBIT_TYPE":"Highly Elliptical Orbit","OPERATIONAL_STATUS":"N/A, derelict rocket body","satInfo":{"lng":-45.650442148273214,"lat":2.4875830786124755,"elevation":-7.118930108135021,"azimuth":0.6504421482732125,"range":38068.98098568404,"height":31432.96305612522,"velocity":2.214699210478692},"x":-217.7714206538835,"y":-212.9250546189585,"dx":1.5481501827091602,"dy":-1.583705655945111,"maxAlt":340.30935048479665,"minAlt":6.506525230863058},{"OBJECT_ID":"2001-011D","OBJECT_NAME":"ARIANE 5 DEB (SYLDA)","NORAD_CAT_ID":"26722","OBJECT_TYPE":"DEBRIS","PERIOD":"646.152","INCLINATION":"1.7514","APOGEE":"35886.741","PERIGEE":"873.150","ECCENTRICITY":"0.7071144","MEAN_MOTION":"2.22857521","TLE_LINE1":"1 26722U 01011D   16238.61205559 -.00000162 +00000-0 +14600-2 0  9998","TLE_LINE2":"2 26722 001.7514 114.3557 7071144 185.9728 027.6840 02.22857521125985","LAUNCH_DATE":"2001-03-08","LAUNCH_SITE":"FRENCH GUIANA","OWNER":"FRANCE","ORBIT_TYPE":"Highly Elliptical Orbit","OPERATIONAL_STATUS":"N/A, space debris","satInfo":{"lng":-90.79168845752558,"lat":5.537484021285941,"elevation":-3.2966843100980925,"azimuth":45.791688457525545,"range":41227.74396304917,"height":34974.1627530659,"velocity":1.782275193316275},"x":-337.75519574302064,"y":2.7354887250801845,"dx":-0.024625929023655426,"dy":-1.782105055357368,"maxAlt":342.7405304567716,"minAlt":6.480047793838627},{"OBJECT_ID":"2001-012A","OBJECT_NAME":"XM-2","NORAD_CAT_ID":"26724","OBJECT_TYPE":"PAYLOAD","PERIOD":"1453.309","INCLINATION":"1.5254","APOGEE":"36141.632","PERIGEE":"36104.036","ECCENTRICITY":"0.0004423","MEAN_MOTION":"0.99084223","TLE_LINE1":"1 26724U 01012A   16237.39650829 -.00000265  00000-0  00000+0 0  9999","TLE_LINE2":"2 26724   1.5254  79.8079 0004423 349.9609  10.5779  0.99084223 56527","LAUNCH_DATE":"2001-03-18","LAUNCH_SITE":"SEA LAUNCH","OWNER":"UNITED STATES OF AMERICA","ORBIT_TYPE":"Geosynchronous","OPERATIONAL_STATUS":"Nonoperational","satInfo":{"lng":69.69063430484584,"lat":-3.559622322907159,"elevation":-11.967078619465065,"azimuth":245.30936569515416,"range":43376.89020282084,"height":36137.98192998833,"velocity":3.0614573591059617},"x":323.57749743524977,"y":-122.36571465197659,"dx":1.0625980396583872,"dy":2.8711333246190787,"maxAlt":345.1884304932584,"minAlt":344.8273692954454},{"OBJECT_ID":"2001-012B","OBJECT_NAME":"BLOCK DM-SL R/B","NORAD_CAT_ID":"26725","OBJECT_TYPE":"ROCKET BODY","PERIOD":"644.082","INCLINATION":"0.7014","APOGEE":"35757.724","PERIGEE":"896.355","ECCENTRICITY":"0.7055479","MEAN_MOTION":"2.23573776","TLE_LINE1":"1 26725U 01012B   16239.42840433 -.00000252  00000-0  86986-3 0  9995","TLE_LINE2":"2 26725   0.7014 170.3362 7055479 168.3659   8.3146  2.23573776126141","LAUNCH_DATE":"2001-03-18","LAUNCH_SITE":"SEA LAUNCH","OWNER":"SEA LAUNCH DEMO","ORBIT_TYPE":"Highly Elliptical Orbit","OPERATIONAL_STATUS":"N/A, derelict rocket body","satInfo":{"lng":-31.61039039403824,"lat":2.3523201000815614,"elevation":-6.838452887254147,"azimuth":346.6103903940382,"range":39778.53910953292,"height":33150.6841693828,"velocity":2.0080528922398706},"x":-168.77582091580499,"y":-273.03919175696444,"dx":1.7101218940611,"dy":-1.0525015560491042,"maxAlt":341.50148820338705,"minAlt":6.702901956389203},{"OBJECT_ID":"2001-018A","OBJECT_NAME":"XM-1","NORAD_CAT_ID":"26761","OBJECT_TYPE":"PAYLOAD","PERIOD":"1454.468","INCLINATION":"0.4465","APOGEE":"36182.649","PERIGEE":"36108.224","ECCENTRICITY":"0.0008751","MEAN_MOTION":"0.99005233","TLE_LINE1":"1 26761U 01018A   16238.27202336  .00000032  00000-0  00000+0 0  9991","TLE_LINE2":"2 26761   0.4465  89.9757 0008751  92.1067 113.1748  0.99005233 56078","LAUNCH_DATE":"2001-05-08","LAUNCH_SITE":"SEA LAUNCH","OWNER":"UNITED STATES OF AMERICA","ORBIT_TYPE":"Geosynchronous","OPERATIONAL_STATUS":"Nonoperational","satInfo":{"lng":17.224648535071385,"lat":-0.28049605973222963,"elevation":-8.780930891310643,"azimuth":297.7753514649286,"range":43004.80105326908,"height":36123.124036554866,"velocity":3.0632592277643114},"x":100.82301374094433,"y":-333.2627339313674,"dx":2.925875300568259,"dy":0.9070892028945139,"maxAlt":345.5823459935961,"minAlt":344.86758964591996},{"OBJECT_ID":"2001-018B","OBJECT_NAME":"BLOCK DM-SL R/B","NORAD_CAT_ID":"26762","OBJECT_TYPE":"ROCKET BODY","PERIOD":"643.306","INCLINATION":"1.039","APOGEE":"35709.034","PERIGEE":"905.323","ECCENTRICITY":"0.7049477","MEAN_MOTION":"2.23843647","TLE_LINE1":"1 26762U 01018B   16238.43829903 -.00000120  00000-0  20000-2 0  9999","TLE_LINE2":"2 26762   1.0390 271.9051 7049477  97.4386   8.1546  2.23843647125133","LAUNCH_DATE":"2001-05-08","LAUNCH_SITE":"SEA LAUNCH","OWNER":"SEA LAUNCH DEMO","ORBIT_TYPE":"Highly Elliptical Orbit","OPERATIONAL_STATUS":"N/A, derelict rocket body","satInfo":{"lng":-52.69726707057563,"lat":-0.15938344005271493,"elevation":-13.129452144959817,"azimuth":7.69726707057563,"range":28323.480331936298,"height":21205.05517810245,"velocity":3.5707364013027716},"x":-163.89554749051143,"y":-125.32104224574174,"dx":2.163960321530872,"dy":-2.8403228996768437,"maxAlt":341.03388341241146,"minAlt":6.789028055495152},{"OBJECT_ID":"2001-024A","OBJECT_NAME":"INTELSAT 901","NORAD_CAT_ID":"26824","OBJECT_TYPE":"PAYLOAD","PERIOD":"1436.094","INCLINATION":"0.0589","APOGEE":"35798.070","PERIGEE":"35775.014","ECCENTRICITY":"0.0002734","MEAN_MOTION":"1.0027198","TLE_LINE1":"1 26824U 01024A   16239.00322626 -.00000169  00000-0  00000+0 0  9997","TLE_LINE2":"2 26824   0.0589 289.4474 0002734 238.8993 149.4875  1.00271980 55671","LAUNCH_DATE":"2001-06-09","LAUNCH_SITE":"FRENCH GUIANA","OWNER":"INTERNATIONAL TELECOMMUNICATIONS SATELLITE ORGANIZATION (INTELSAT)","ORBIT_TYPE":"Geosynchronous","OPERATIONAL_STATUS":"Operational","satInfo":{"lng":-109.12013355670042,"lat":-1.406129676204861,"elevation":-9.952532029546914,"azimuth":64.1201335567004,"range":42757.18982504135,"height":35748.28441867358,"velocity":3.0763136457963838},"x":-326.28227209790765,"y":110.547785367439,"dx":-1.0076463219391498,"dy":-2.906605328763357,"maxAlt":341.8889596122328,"minAlt":341.6675364029345},{"OBJECT_ID":"2001-025A","OBJECT_NAME":"ASTRA 2C","NORAD_CAT_ID":"26853","OBJECT_TYPE":"PAYLOAD","PERIOD":"1436.103","INCLINATION":"0.097","APOGEE":"35800.070","PERIGEE":"35773.380","ECCENTRICITY":"0.0003165","MEAN_MOTION":"1.00271327","TLE_LINE1":"1 26853U 01025A   16238.95478243 +.00000019 +00000-0 +00000-0 0  9994","TLE_LINE2":"2 26853 000.0970 290.5628 0003165 229.4018 218.6717 01.00271327009144","LAUNCH_DATE":"2001-06-16","LAUNCH_SITE":"TYURATAM MISSILE AND SPACE COMPLEX","OWNER":"SOCIÉTÉ EUROPÉENNE DES SATELLITES","ORBIT_TYPE":"Geosynchronous","OPERATIONAL_STATUS":"Operational","satInfo":{"lng":89.97110502622493,"lat":1.8079491530609888,"elevation":-6.80163599550684,"azimuth":225.02889497377507,"range":42453.387817663555,"height":35797.443325446664,"velocity":3.0738972298723777},"x":341.88289749158935,"y":-2.0788110454662276,"dx":0.0015502045147874702,"dy":3.0738968389786665,"maxAlt":341.90816703843836,"minAlt":341.6518439357245},{"OBJECT_ID":"2001-039A","OBJECT_NAME":"INTELSAT 902","NORAD_CAT_ID":"26900","OBJECT_TYPE":"PAYLOAD","PERIOD":"1436.078","INCLINATION":"0.0159","APOGEE":"35798.778","PERIGEE":"35773.699","ECCENTRICITY":"0.0002974","MEAN_MOTION":"1.00273061","TLE_LINE1":"1 26900U 01039A   16239.03591009  .00000005  00000-0  00000+0 0  9992","TLE_LINE2":"2 26900   0.0159 103.0047 0002974  54.9703 251.6618  1.00273061 54850","LAUNCH_DATE":"2001-08-30","LAUNCH_SITE":"FRENCH GUIANA","OWNER":"INTERNATIONAL TELECOMMUNICATIONS SATELLITE ORGANIZATION (INTELSAT)","ORBIT_TYPE":"Geosynchronous","OPERATIONAL_STATUS":"Operational","satInfo":{"lng":88.32382219695668,"lat":-2.0799441137677617,"elevation":-10.597954885634023,"azimuth":226.67617780304332,"range":42879.91185177751,"height":35798.0849537954,"velocity":3.0738801686157937},"x":341.7419963702804,"y":-11.961647564806666,"dx":0.08991298914385125,"dy":3.0725648805831063,"maxAlt":341.89575904110956,"minAlt":341.65490752020435},{"OBJECT_ID":"2001-042A","OBJECT_NAME":"EUTE 8 WEST A (AB 2)","NORAD_CAT_ID":"26927","OBJECT_TYPE":"PAYLOAD","PERIOD":"1436.095","INCLINATION":"0.08","APOGEE":"35805.309","PERIGEE":"35767.833","ECCENTRICITY":"0.0004444","MEAN_MOTION":"1.00271876","TLE_LINE1":"1 26927U 01042A   16238.81412957 -.00000128  00000-0  00000+0 0  9991","TLE_LINE2":"2 26927   0.0800  40.2110 0004444 120.7354  94.1224  1.00271876 54601","LAUNCH_DATE":"2001-09-25","LAUNCH_SITE":"FRENCH GUIANA","OWNER":"EUROPEAN TELECOMMUNICATIONS SATELLITE ORGANIZATION (EUTELSAT)","ORBIT_TYPE":"Geosynchronous","OPERATIONAL_STATUS":"Operational","satInfo":{"lng":-172.78353008394245,"lat":1.065877160849125,"elevation":-7.531908114362065,"azimuth":127.78353008394242,"range":42521.32948159437,"height":35783.60713636942,"velocity":3.0745495782271792},"x":-45.07489344357927,"y":339.02784102348295,"dx":-3.0501949419005583,"dy":-0.3862200478757886,"maxAlt":341.958480891384,"minAlt":341.59857213914324}]